CCSDS_OMM_VERS = 2.0
CREATION_DATE  = 
ORIGINATOR     = 

OBJECT_NAME    = STARLINK-35581
OBJECT_ID      = 2025-262Z
CENTER_NAME    = EARTH
REF_FRAME      = TEME
TIME_SYSTEM    = UTC
MEAN_ELEMENT_THEORY = SGP/SGP4

EPOCH          = 2025-12-09T04:36:03.527136
MEAN_MOTION    = 15.50619960
ECCENTRICITY   = .00016975
INCLINATION    = 43.0006
RA_OF_ASC_NODE = 91.7771
ARG_OF_PERICENTER = 281.3060
MEAN_ANOMALY   = 78.7610

EPHEMERIS_TYPE = 0
CLASSIFICATION_TYPE = U
NORAD_CAT_ID   = 66479
ELEMENT_SET_NO = 999
REV_AT_EPOCH   = 501
BSTAR          = .2616605E-2
MEAN_MOTION_DOT = .156498E-2
MEAN_MOTION_DDOT = 0

CCSDS_OMM_VERS = 2.0
CREATION_DATE  = 
ORIGINATOR     = 

OBJECT_NAME    = STARLINK-35670
OBJECT_ID      = 2025-262AA
CENTER_NAME    = EARTH
REF_FRAME      = TEME
TIME_SYSTEM    = UTC
MEAN_ELEMENT_THEORY = SGP/SGP4

EPOCH          = 2025-12-09T04:34:35.606496
MEAN_MOTION    = 15.50638336
ECCENTRICITY   = .00018313
INCLINATION    = 43.0004
RA_OF_ASC_NODE = 91.7688
ARG_OF_PERICENTER = 285.9324
MEAN_ANOMALY   = 74.1334

EPHEMERIS_TYPE = 0
CLASSIFICATION_TYPE = U
NORAD_CAT_ID   = 66480
ELEMENT_SET_NO = 999
REV_AT_EPOCH   = 501
BSTAR          = .26553331E-2
MEAN_MOTION_DOT = .158975E-2
MEAN_MOTION_DDOT = 0

CCSDS_OMM_VERS = 2.0
CREATION_DATE  = 
ORIGINATOR     = 

OBJECT_NAME    = STARLINK-35698
OBJECT_ID      = 2025-262AB
CENTER_NAME    = EARTH
REF_FRAME      = TEME
TIME_SYSTEM    = UTC
MEAN_ELEMENT_THEORY = SGP/SGP4

EPOCH          = 2025-12-09T04:34:05.996352
MEAN_MOTION    = 15.50639791
ECCENTRICITY   = .00021599
INCLINATION    = 43.0005
RA_OF_ASC_NODE = 91.7659
ARG_OF_PERICENTER = 297.2086
MEAN_ANOMALY   = 62.8554

EPHEMERIS_TYPE = 0
CLASSIFICATION_TYPE = U
NORAD_CAT_ID   = 66481
ELEMENT_SET_NO = 999
REV_AT_EPOCH   = 501
BSTAR          = .27095054E-2
MEAN_MOTION_DOT = .162305E-2
MEAN_MOTION_DDOT = 0

CCSDS_OMM_VERS = 2.0
CREATION_DATE  = 
ORIGINATOR     = 

OBJECT_NAME    = STARLINK-35648
OBJECT_ID      = 2025-262AC
CENTER_NAME    = EARTH
REF_FRAME      = TEME
TIME_SYSTEM    = UTC
MEAN_ELEMENT_THEORY = SGP/SGP4

EPOCH          = 2025-12-09T04:33:36.344736
MEAN_MOTION    = 15.50654650
ECCENTRICITY   = .00021197
INCLINATION    = 43.0006
RA_OF_ASC_NODE = 91.7631
ARG_OF_PERICENTER = 284.4982
MEAN_ANOMALY   = 75.5643

EPHEMERIS_TYPE = 0
CLASSIFICATION_TYPE = U
NORAD_CAT_ID   = 66482
ELEMENT_SET_NO = 999
REV_AT_EPOCH   = 485
BSTAR          = .34125868E-2
MEAN_MOTION_DOT = .205766E-2
MEAN_MOTION_DDOT = 0

CCSDS_OMM_VERS = 2.0
CREATION_DATE  = 
ORIGINATOR     = 

OBJECT_NAME    = STARLINK-35654
OBJECT_ID      = 2025-262AD
CENTER_NAME    = EARTH
REF_FRAME      = TEME
TIME_SYSTEM    = UTC
MEAN_ELEMENT_THEORY = SGP/SGP4

EPOCH          = 2025-12-09T04:33:06.687936
MEAN_MOTION    = 15.50634530
ECCENTRICITY   = .00022278
INCLINATION    = 43.0008
RA_OF_ASC_NODE = 91.7599
ARG_OF_PERICENTER = 290.4081
MEAN_ANOMALY   = 69.6539

EPHEMERIS_TYPE = 0
CLASSIFICATION_TYPE = U
NORAD_CAT_ID   = 66483
ELEMENT_SET_NO = 999
REV_AT_EPOCH   = 501
BSTAR          = .2627657E-2
MEAN_MOTION_DOT = .15726E-2
MEAN_MOTION_DDOT = 0

CCSDS_OMM_VERS = 2.0
CREATION_DATE  = 
ORIGINATOR     = 

OBJECT_NAME    = STARLINK-35371
OBJECT_ID      = 2025-262AE
CENTER_NAME    = EARTH
REF_FRAME      = TEME
TIME_SYSTEM    = UTC
MEAN_ELEMENT_THEORY = SGP/SGP4

EPOCH          = 2025-12-09T04:32:37.140864
MEAN_MOTION    = 15.50630983
ECCENTRICITY   = .00023532
INCLINATION    = 43.0006
RA_OF_ASC_NODE = 91.7580
ARG_OF_PERICENTER = 294.1816
MEAN_ANOMALY   = 65.8798

EPHEMERIS_TYPE = 0
CLASSIFICATION_TYPE = U
NORAD_CAT_ID   = 66484
ELEMENT_SET_NO = 999
REV_AT_EPOCH   = 501
BSTAR          = .2665705E-2
MEAN_MOTION_DOT = .15957E-2
MEAN_MOTION_DDOT = 0

CCSDS_OMM_VERS = 2.0
CREATION_DATE  = 
ORIGINATOR     = 

OBJECT_NAME    = STARLINK-34774
OBJECT_ID      = 2025-263A
CENTER_NAME    = EARTH
REF_FRAME      = TEME
TIME_SYSTEM    = UTC
MEAN_ELEMENT_THEORY = SGP/SGP4

EPOCH          = 2025-12-09T06:00:02.000160
MEAN_MOTION    = 15.48976217
ECCENTRICITY   = .00013729
INCLINATION    = 43.0007
RA_OF_ASC_NODE = 145.5826
ARG_OF_PERICENTER = 266.4801
MEAN_ANOMALY   = 311.2241

EPHEMERIS_TYPE = 0
CLASSIFICATION_TYPE = U
NORAD_CAT_ID   = 66485
ELEMENT_SET_NO = 999
REV_AT_EPOCH   = 507
BSTAR          = -.42418853E-1
MEAN_MOTION_DOT = -.2088222E-1
MEAN_MOTION_DDOT = 0

CCSDS_OMM_VERS = 2.0
CREATION_DATE  = 
ORIGINATOR     = 

OBJECT_NAME    = STARLINK-34844
OBJECT_ID      = 2025-263B
CENTER_NAME    = EARTH
REF_FRAME      = TEME
TIME_SYSTEM    = UTC
MEAN_ELEMENT_THEORY = SGP/SGP4

EPOCH          = 2025-12-09T06:00:02.000160
MEAN_MOTION    = 15.50679985
ECCENTRICITY   = .00014655
INCLINATION    = 43.0006
RA_OF_ASC_NODE = 145.5750
ARG_OF_PERICENTER = 273.5834
MEAN_ANOMALY   = 307.0765

EPHEMERIS_TYPE = 0
CLASSIFICATION_TYPE = U
NORAD_CAT_ID   = 66486
ELEMENT_SET_NO = 999
REV_AT_EPOCH   = 502
BSTAR          = -.36731873E-2
MEAN_MOTION_DOT = -.210888E-2
MEAN_MOTION_DDOT = 0

CCSDS_OMM_VERS = 2.0
CREATION_DATE  = 
ORIGINATOR     = 

OBJECT_NAME    = STARLINK-34733
OBJECT_ID      = 2025-263C
CENTER_NAME    = EARTH
REF_FRAME      = TEME
TIME_SYSTEM    = UTC
MEAN_ELEMENT_THEORY = SGP/SGP4

EPOCH          = 2025-12-09T06:00:02.000160
MEAN_MOTION    = 15.50684599
ECCENTRICITY   = .00014357
INCLINATION    = 43.0007
RA_OF_ASC_NODE = 145.5711
ARG_OF_PERICENTER = 268.7624
MEAN_ANOMALY   = 313.8190

EPHEMERIS_TYPE = 0
CLASSIFICATION_TYPE = U
NORAD_CAT_ID   = 66487
ELEMENT_SET_NO = 999
REV_AT_EPOCH   = 507
BSTAR          = -.38689108E-2
MEAN_MOTION_DOT = -.221836E-2
MEAN_MOTION_DDOT = 0

CCSDS_OMM_VERS = 2.0
CREATION_DATE  = 
ORIGINATOR     = 

OBJECT_NAME    = STARLINK-35515
OBJECT_ID      = 2025-263D
CENTER_NAME    = EARTH
REF_FRAME      = TEME
TIME_SYSTEM    = UTC
MEAN_ELEMENT_THEORY = SGP/SGP4

EPOCH          = 2025-12-09T06:00:02.000160
MEAN_MOTION    = 15.50662606
ECCENTRICITY   = .00014444
INCLINATION    = 43.0005
RA_OF_ASC_NODE = 145.5658
ARG_OF_PERICENTER = 270.9974
MEAN_ANOMALY   = 313.5016

EPHEMERIS_TYPE = 0
CLASSIFICATION_TYPE = U
NORAD_CAT_ID   = 66488
ELEMENT_SET_NO = 999
REV_AT_EPOCH   = 507
BSTAR          = -.31341123E-2
MEAN_MOTION_DOT = -.180567E-2
MEAN_MOTION_DDOT = 0

CCSDS_OMM_VERS = 2.0
CREATION_DATE  = 
ORIGINATOR     = 

OBJECT_NAME    = STARLINK-35696
OBJECT_ID      = 2025-263E
CENTER_NAME    = EARTH
REF_FRAME      = TEME
TIME_SYSTEM    = UTC
MEAN_ELEMENT_THEORY = SGP/SGP4

EPOCH          = 2025-12-09T06:00:02.000160
MEAN_MOTION    = 15.50601301
ECCENTRICITY   = .00016476
INCLINATION    = 43.0005
RA_OF_ASC_NODE = 145.5615
ARG_OF_PERICENTER = 275.1388
MEAN_ANOMALY   = 311.2987

EPHEMERIS_TYPE = 0
CLASSIFICATION_TYPE = U
NORAD_CAT_ID   = 66489
ELEMENT_SET_NO = 999
REV_AT_EPOCH   = 507
BSTAR          = -.17362972E-2
MEAN_MOTION_DOT = -.100981E-2
MEAN_MOTION_DDOT = 0

CCSDS_OMM_VERS = 2.0
CREATION_DATE  = 
ORIGINATOR     = 

OBJECT_NAME    = STARLINK-35693
OBJECT_ID      = 2025-263F
CENTER_NAME    = EARTH
REF_FRAME      = TEME
TIME_SYSTEM    = UTC
MEAN_ELEMENT_THEORY = SGP/SGP4

EPOCH          = 2025-12-09T06:00:02.000160
MEAN_MOTION    = 15.50654474
ECCENTRICITY   = .00015549
INCLINATION    = 43.0006
RA_OF_ASC_NODE = 145.5559
ARG_OF_PERICENTER = 275.5152
MEAN_ANOMALY   = 312.8079

EPHEMERIS_TYPE = 0
CLASSIFICATION_TYPE = U
NORAD_CAT_ID   = 66490
ELEMENT_SET_NO = 999
REV_AT_EPOCH   = 507
BSTAR          = -.25995677E-2
MEAN_MOTION_DOT = -.15036E-2
MEAN_MOTION_DDOT = 0

