STARLINK-35581          
1 66479U 25262Z   25343.19170749  .00156498  00000+0  26166-2 0  9999
2 66479  43.0006  91.7771 0001697 281.3060  78.7610 15.50619960  5019
STARLINK-35670          
1 66480U 25262AA  25343.19068989  .00158975  00000+0  26553-2 0  9995
2 66480  43.0004  91.7688 0001831 285.9324  74.1334 15.50638336  5010
STARLINK-35698          
1 66481U 25262AB  25343.19034718  .00162305  00000+0  27095-2 0  9993
2 66481  43.0005  91.7659 0002159 297.2086  62.8554 15.50639791  5019
STARLINK-35648          
1 66482U 25262AC  25343.19000399  .00205766  00000+0  34126-2 0  9994
2 66482  43.0006  91.7631 0002119 284.4982  75.5643 15.50654650  4852
STARLINK-35654          
1 66483U 25262AD  25343.18966074  .00157260  00000+0  26277-2 0  9998
2 66483  43.0008  91.7599 0002227 290.4081  69.6539 15.50634530  5017
STARLINK-35371          
1 66484U 25262AE  25343.18931876  .00159570  00000+0  26657-2 0  9999
2 66484  43.0006  91.7580 0002353 294.1816  65.8798 15.50630983  5016
STARLINK-34774          
1 66485U 25263A   25343.25002315 -.02088222  00000+0 -42419-1 0  9998
2 66485  43.0007 145.5826 0001372 266.4801 311.2241 15.48976217  5072
STARLINK-34844          
1 66486U 25263B   25343.25002315 -.00210888  00000+0 -36732-2 0  9994
2 66486  43.0006 145.5750 0001465 273.5834 307.0765 15.50679985  5020
STARLINK-34733          
1 66487U 25263C   25343.25002315 -.00221836  00000+0 -38689-2 0  9993
2 66487  43.0007 145.5711 0001435 268.7624 313.8190 15.50684599  5078
STARLINK-35515          
1 66488U 25263D   25343.25002315 -.00180567  00000+0 -31341-2 0  9997
2 66488  43.0005 145.5658 0001444 270.9974 313.5016 15.50662606  5079
STARLINK-35696          
1 66489U 25263E   25343.25002315 -.00100981  00000+0 -17363-2 0  9998
2 66489  43.0005 145.5615 0001647 275.1388 311.2987 15.50601301  5071
STARLINK-35693          
1 66490U 25263F   25343.25002315 -.00150360  00000+0 -25996-2 0  9997
2 66490  43.0006 145.5559 0001554 275.5152 312.8079 15.50654474  5079
